0 COSMOS 2251 DEB
1 38195U 93036BSK 13280.91239936  .00004998  00000-0  16140-2 0   482
2 38195 073.8405 118.4851 0063806 162.5257 262.1680 14.38234213178691
0 COSMOS 2251 DEB
1 38195U 93036BSK 13286.20928361  .00005558  00000-0  17914-2 0   491
2 38195 073.8402 108.6094 0063839 151.5513 328.1449 14.38288389179451
0 COSMOS 2251 DEB
1 38195U 93036BSK 13290.17446994  .00008142  00000-0  26172-2 0   509
2 38195 073.8414 101.2136 0063106 143.2215 339.9000 14.38352042180020
0 COSMOS 2251 DEB
1 38195U 93036BSK 13290.77675920  .00009365  00000-0  29996-2 0   514
2 38195 073.8395 100.0899 0063592 143.0800 217.5241 14.38362695180111
0 COSMOS 2251 DEB
1 38195U 93036BSK 13294.13879807  .00009322  00000-0  29904-2 0   521
2 38195 073.8372 093.8190 0063438 136.2976 346.7194 14.38412457180592
